start=new Date('2021-10-26T00:00:00.000Z').valueOf();
sats=[{"RA_OF_ASC_NODE":"207.3733","OBJECT_ID":"2020-073Q","CENTER_NAME":"EARTH","EPOCH":"2021-10-25T11:04:31.283616","REV_AT_EPOCH":"5702","BSTAR":"0.00012998000000","GP_ID":"188149580","MEAN_MOTION":"15.06398288","PERIOD":"95.592","ECCENTRICITY":"0.00018940","PERIAPSIS":"545.907","REF_FRAME":"TEME","TIME_SYSTEM":"UTC","LAUNCH_DATE":"2020-10-18","MEAN_MOTION_DDOT":"0.0000000000000","CLASSIFICATION_TYPE":"U","TLE_LINE1":"1 46684U 20073Q   21298.46147319  .00001655  00000-0  12998-3 0  9996","INCLINATION":"53.0533","OBJECT_TYPE":"PAYLOAD","MEAN_ANOMALY":"283.2349","NORAD_CAT_ID":"46684","EPHEMERIS_TYPE":"0","APOAPSIS":"548.530","SITE":"AFETR","DECAY_DATE":null,"COUNTRY_CODE":"US","TLE_LINE2":"2 46684  53.0533 207.3733 0001894  76.8852 283.2349 15.06398288 57027","SEMIMAJOR_AXIS":"6925.354","OBJECT_NAME":"STARLINK-1780","FILE":"3183646","ELEMENT_SET_NO":"999","MEAN_MOTION_DOT":"0.00001655","RCS_SIZE":"LARGE","MEAN_ELEMENT_THEORY":"SGP4","ARG_OF_PERICENTER":"76.8852"},{"ARG_OF_PERICENTER":"71.9595","RCS_SIZE":"LARGE","MEAN_MOTION_DOT":"0.00001080","MEAN_ELEMENT_THEORY":"SGP4","ELEMENT_SET_NO":"999","DECAY_DATE":null,"SITE":"AFETR","APOAPSIS":"548.337","EPHEMERIS_TYPE":"0","FILE":"3183303","SEMIMAJOR_AXIS":"6925.327","OBJECT_NAME":"STARLINK-1781","COUNTRY_CODE":"US","TLE_LINE2":"2 46685  53.0546 223.2908 0001654  71.9595 288.1575 15.06407172 56776","ECCENTRICITY":"0.00016540","PERIOD":"95.592","MEAN_MOTION":"15.06407172","BSTAR":"0.00009135800000","GP_ID":"188119222","REV_AT_EPOCH":"5677","NORAD_CAT_ID":"46685","OBJECT_TYPE":"PAYLOAD","MEAN_ANOMALY":"288.1575","TLE_LINE1":"1 46685U 20073R   21298.25183683  .00001080  00000-0  91358-4 0  9998","INCLINATION":"53.0546","LAUNCH_DATE":"2020-10-18","MEAN_MOTION_DDOT":"0.0000000000000","TIME_SYSTEM":"UTC","CLASSIFICATION_TYPE":"U","PERIAPSIS":"546.046","REF_FRAME":"TEME","CENTER_NAME":"EARTH","OBJECT_ID":"2020-073R","RA_OF_ASC_NODE":"223.2908","EPOCH":"2021-10-25T06:02:38.702112"},{"ELEMENT_SET_NO":"999","ARG_OF_PERICENTER":"70.6903","RCS_SIZE":"LARGE","MEAN_MOTION_DOT":"-0.00001381","MEAN_ELEMENT_THEORY":"SGP4","EPHEMERIS_TYPE":"0","APOAPSIS":"548.260","DECAY_DATE":null,"SITE":"AFETR","OBJECT_NAME":"STARLINK-1783","SEMIMAJOR_AXIS":"6925.359","TLE_LINE2":"2 46686  53.0546 221.8973 0001497  70.6903 289.4248 15.06396721 56821","COUNTRY_CODE":"US","FILE":"3183768","GP_ID":"188152857","BSTAR":"-0.00007385900000","REV_AT_EPOCH":"5682","ECCENTRICITY":"0.00014970","MEAN_MOTION":"15.06396721","PERIOD":"95.592","CLASSIFICATION_TYPE":"U","LAUNCH_DATE":"2020-10-18","TIME_SYSTEM":"UTC","MEAN_MOTION_DDOT":"0.0000000000000","REF_FRAME":"TEME","PERIAPSIS":"546.187","MEAN_ANOMALY":"289.4248","OBJECT_TYPE":"PAYLOAD","NORAD_CAT_ID":"46686","INCLINATION":"53.0546","TLE_LINE1":"1 46686U 20073S   21298.56514649 -.00001381  00000-0 -73859-4 0  9995","OBJECT_ID":"2020-073S","RA_OF_ASC_NODE":"221.8973","CENTER_NAME":"EARTH","EPOCH":"2021-10-25T13:33:48.656736"},{"RCS_SIZE":"LARGE","MEAN_MOTION_DOT":"0.00000133","MEAN_ELEMENT_THEORY":"SGP4","ARG_OF_PERICENTER":"83.0014","ELEMENT_SET_NO":"999","SITE":"AFETR","DECAY_DATE":null,"EPHEMERIS_TYPE":"0","APOAPSIS":"548.417","FILE":"3183453","TLE_LINE2":"2 46687  53.0548 188.7365 0001730  83.0014 277.1172 15.06398223 56774","COUNTRY_CODE":"US","OBJECT_NAME":"STARLINK-1784","SEMIMAJOR_AXIS":"6925.354","MEAN_MOTION":"15.06398223","PERIOD":"95.592","ECCENTRICITY":"0.00017300","REV_AT_EPOCH":"5677","GP_ID":"188144218","BSTAR":"0.00002785100000","INCLINATION":"53.0548","TLE_LINE1":"1 46687U 20073T   21298.15371378  .00000133  00000-0  27851-4 0  9994","NORAD_CAT_ID":"46687","OBJECT_TYPE":"PAYLOAD","MEAN_ANOMALY":"277.1172","REF_FRAME":"TEME","PERIAPSIS":"546.021","CLASSIFICATION_TYPE":"U","LAUNCH_DATE":"2020-10-18","MEAN_MOTION_DDOT":"0.0000000000000","TIME_SYSTEM":"UTC","CENTER_NAME":"EARTH","RA_OF_ASC_NODE":"188.7365","OBJECT_ID":"2020-073T","EPOCH":"2021-10-25T03:41:20.870592"},{"FILE":"3183652","SEMIMAJOR_AXIS":"6817.802","OBJECT_NAME":"STARLINK-1786","COUNTRY_CODE":"US","TLE_LINE2":"2 46688  53.0548 209.6769 0001671  59.3686 300.7483 15.42183883 56997","DECAY_DATE":null,"SITE":"AFETR","EPHEMERIS_TYPE":"0","APOAPSIS":"440.807","ARG_OF_PERICENTER":"59.3686","MEAN_ELEMENT_THEORY":"SGP4","RCS_SIZE":"LARGE","MEAN_MOTION_DOT":"0.00005432","ELEMENT_SET_NO":"999","EPOCH":"2021-10-25T11:04:09.268032","CENTER_NAME":"EARTH","OBJECT_ID":"2020-073U","RA_OF_ASC_NODE":"209.6769","OBJECT_TYPE":"PAYLOAD","MEAN_ANOMALY":"300.7483","NORAD_CAT_ID":"46688","TLE_LINE1":"1 46688U 20073U   21298.46121838  .00005432  00000-0  13409-3 0  9993","INCLINATION":"53.0548","LAUNCH_DATE":"2020-10-18","TIME_SYSTEM":"UTC","MEAN_MOTION_DDOT":"0.0000000000000","CLASSIFICATION_TYPE":"U","PERIAPSIS":"438.528","REF_FRAME":"TEME","ECCENTRICITY":"0.00016710","PERIOD":"93.374","MEAN_MOTION":"15.42183883","BSTAR":"0.00013409000000","GP_ID":"188150173","REV_AT_EPOCH":"5699"},{"ELEMENT_SET_NO":"999","MEAN_ELEMENT_THEORY":"SGP4","RCS_SIZE":"LARGE","MEAN_MOTION_DOT":"0.00000241","ARG_OF_PERICENTER":"75.2374","COUNTRY_CODE":"US","TLE_LINE2":"2 46689  53.0552 223.6427 0001726  75.2374 284.8806 15.06397811 57532","SEMIMAJOR_AXIS":"6925.355","OBJECT_NAME":"STARLINK-1788","FILE":"3183453","APOAPSIS":"548.416","EPHEMERIS_TYPE":"0","SITE":"AFETR","DECAY_DATE":null,"PERIAPSIS":"546.025","REF_FRAME":"TEME","LAUNCH_DATE":"2020-10-18","TIME_SYSTEM":"UTC","MEAN_MOTION_DDOT":"0.0000000000000","CLASSIFICATION_TYPE":"U","TLE_LINE1":"1 46689U 20073V   21298.17813143  .00000241  00000-0  35090-4 0  9993","INCLINATION":"53.0552","MEAN_ANOMALY":"284.8806","OBJECT_TYPE":"PAYLOAD","NORAD_CAT_ID":"46689","REV_AT_EPOCH":"5753","BSTAR":"0.00003509000000","GP_ID":"188143716","PERIOD":"95.592","MEAN_MOTION":"15.06397811","ECCENTRICITY":"0.00017260","EPOCH":"2021-10-25T04:16:30.555552","RA_OF_ASC_NODE":"223.6427","OBJECT_ID":"2020-073V","CENTER_NAME":"EARTH"},{"SITE":"AFETR","DECAY_DATE":null,"APOAPSIS":"548.433","EPHEMERIS_TYPE":"0","FILE":"3183328","COUNTRY_CODE":"US","TLE_LINE2":"2 46690  53.0547 198.3256 0001772  74.4219 285.6966 15.06402396 57122","SEMIMAJOR_AXIS":"6925.341","OBJECT_NAME":"STARLINK-1789","MEAN_ELEMENT_THEORY":"SGP4","RCS_SIZE":"LARGE","MEAN_MOTION_DOT":"0.00001836","ARG_OF_PERICENTER":"74.4219","ELEMENT_SET_NO":"999","CENTER_NAME":"EARTH","RA_OF_ASC_NODE":"198.3256","OBJECT_ID":"2020-073W","EPOCH":"2021-10-25T05:52:42.001248","MEAN_MOTION":"15.06402396","PERIOD":"95.592","ECCENTRICITY":"0.00017720","REV_AT_EPOCH":"5712","BSTAR":"0.00014215000000","GP_ID":"188119836","TLE_LINE1":"1 46690U 20073W   21298.24493057  .00001836  00000-0  14215-3 0  9997","INCLINATION":"53.0547","OBJECT_TYPE":"PAYLOAD","NORAD_CAT_ID":"46690","MEAN_ANOMALY":"285.6966","PERIAPSIS":"545.979","REF_FRAME":"TEME","LAUNCH_DATE":"2020-10-18","MEAN_MOTION_DDOT":"0.0000000000000","TIME_SYSTEM":"UTC","CLASSIFICATION_TYPE":"U"},{"RCS_SIZE":"LARGE","MEAN_MOTION_DOT":"0.00000160","MEAN_ELEMENT_THEORY":"SGP4","ARG_OF_PERICENTER":"67.8379","ELEMENT_SET_NO":"999","FILE":"3183328","TLE_LINE2":"2 46691  53.0556 208.3449 0002047  67.8379 292.2827 15.06397714 56988","COUNTRY_CODE":"US","OBJECT_NAME":"STARLINK-1790","SEMIMAJOR_AXIS":"6925.356","SITE":"AFETR","DECAY_DATE":null,"EPHEMERIS_TYPE":"0","APOAPSIS":"548.638","INCLINATION":"53.0556","TLE_LINE1":"1 46691U 20073X   21298.24401978  .00000160  00000-0  29680-4 0  9991","MEAN_ANOMALY":"292.2827","OBJECT_TYPE":"PAYLOAD","NORAD_CAT_ID":"46691","REF_FRAME":"TEME","PERIAPSIS":"545.803","CLASSIFICATION_TYPE":"U","LAUNCH_DATE":"2020-10-18","MEAN_MOTION_DDOT":"0.0000000000000","TIME_SYSTEM":"UTC","PERIOD":"95.592","MEAN_MOTION":"15.06397714","ECCENTRICITY":"0.00020470","REV_AT_EPOCH":"5698","GP_ID":"188119341","BSTAR":"0.00002968000000","EPOCH":"2021-10-25T05:51:23.308992","CENTER_NAME":"EARTH","OBJECT_ID":"2020-073X","RA_OF_ASC_NODE":"208.3449"},{"EPOCH":"2021-10-25T03:55:16.707648","CENTER_NAME":"EARTH","OBJECT_ID":"2020-073Y","RA_OF_ASC_NODE":"223.7052","INCLINATION":"53.0540","TLE_LINE1":"1 46692U 20073Y   21298.16338782 -.00000165  00000-0  78255-5 0  9994","OBJECT_TYPE":"PAYLOAD","NORAD_CAT_ID":"46692","MEAN_ANOMALY":"288.3457","REF_FRAME":"TEME","PERIAPSIS":"546.124","CLASSIFICATION_TYPE":"U","LAUNCH_DATE":"2020-10-18","TIME_SYSTEM":"UTC","MEAN_MOTION_DDOT":"0.0000000000000","PERIOD":"95.593","MEAN_MOTION":"15.06392259","ECCENTRICITY":"0.00016070","REV_AT_EPOCH":"5628","GP_ID":"188144469","BSTAR":"0.00000782550000","FILE":"3183453","TLE_LINE2":"2 46692  53.0540 223.7052 0001607  71.7707 288.3457 15.06392259 56280","COUNTRY_CODE":"US","OBJECT_NAME":"STARLINK-1791","SEMIMAJOR_AXIS":"6925.372","SITE":"AFETR","DECAY_DATE":null,"EPHEMERIS_TYPE":"0","APOAPSIS":"548.350","MEAN_ELEMENT_THEORY":"SGP4","RCS_SIZE":"LARGE","MEAN_MOTION_DOT":"-0.00000165","ARG_OF_PERICENTER":"71.7707","ELEMENT_SET_NO":"999"},{"APOAPSIS":"548.460","EPHEMERIS_TYPE":"0","DECAY_DATE":null,"SITE":"AFETR","OBJECT_NAME":"STARLINK-1792","SEMIMAJOR_AXIS":"6925.353","TLE_LINE2":"2 46693  53.0547 208.9168 0001794  73.4292 286.6894 15.06398649 56483","COUNTRY_CODE":"US","FILE":"3183453","ELEMENT_SET_NO":"999","ARG_OF_PERICENTER":"73.4292","RCS_SIZE":"LARGE","MEAN_MOTION_DOT":"-0.00000254","MEAN_ELEMENT_THEORY":"SGP4","OBJECT_ID":"2020-073Z","RA_OF_ASC_NODE":"208.9168","CENTER_NAME":"EARTH","EPOCH":"2021-10-25T02:45:36.487296","GP_ID":"188143217","BSTAR":"0.00000186200000","REV_AT_EPOCH":"5648","ECCENTRICITY":"0.00017940","PERIOD":"95.592","MEAN_MOTION":"15.06398649","CLASSIFICATION_TYPE":"U","LAUNCH_DATE":"2020-10-18","TIME_SYSTEM":"UTC","MEAN_MOTION_DDOT":"0.0000000000000","REF_FRAME":"TEME","PERIAPSIS":"545.975","NORAD_CAT_ID":"46693","OBJECT_TYPE":"PAYLOAD","MEAN_ANOMALY":"286.6894","INCLINATION":"53.0547","TLE_LINE1":"1 46693U 20073Z   21298.11500564 -.00000254  00000-0  18620-5 0  9998"}];
